[{"CCSDS_OMM_VERS":"3.0","COMMENT":"GENERATED VIA SPACE-TRACK.ORG API","CREATION_DATE":"2026-05-16T10:38:26","ORIGINATOR":"18 SPCS","OBJECT_NAME":"BEIDOU 3M12","OBJECT_ID":"2018-067B","CENTER_NAME":"EARTH","REF_FRAME":"TEME","TIME_SYSTEM":"UTC","MEAN_ELEMENT_THEORY":"SGP4","EPOCH":"2026-05-14T18:03:44.190720","MEAN_MOTION":"1.86227418","ECCENTRICITY":"0.00044291","INCLINATION":"54.1758","RA_OF_ASC_NODE":"182.1382","ARG_OF_PERICENTER":"17.6934","MEAN_ANOMALY":"342.4159","EPHEMERIS_TYPE":"0","CLASSIFICATION_TYPE":"U","NORAD_CAT_ID":"43603","ELEMENT_SET_NO":"999","REV_AT_EPOCH":"5252","BSTAR":"0.00000000000000","MEAN_MOTION_DOT":"0.00000100","MEAN_MOTION_DDOT":"0.0000000000000","SEMIMAJOR_AXIS":"27906.546","PERIOD":"773.248","APOAPSIS":"21540.772","PERIAPSIS":"21516.051","OBJECT_TYPE":"PAYLOAD","RCS_SIZE":"LARGE","COUNTRY_CODE":"PRC","LAUNCH_DATE":"2018-08-24","SITE":"XSC","DECAY_DATE":null,"FILE":"5196540","GP_ID":"323439169","TLE_LINE0":"0 BEIDOU 3M12","TLE_LINE1":"1 43603U 18067B   26134.75259480  .00000100  00000-0  00000-0 0  9995","TLE_LINE2":"2 43603  54.1758 182.1382 0004429  17.6934 342.4159  1.86227418 52523"},{"CCSDS_OMM_VERS":"3.0","COMMENT":"GENERATED VIA SPACE-TRACK.ORG API","CREATION_DATE":"2026-05-15T10:47:17","ORIGINATOR":"18 SPCS","OBJECT_NAME":"BEIDOU 3M12","OBJECT_ID":"2018-067B","CENTER_NAME":"EARTH","REF_FRAME":"TEME","TIME_SYSTEM":"UTC","MEAN_ELEMENT_THEORY":"SGP4","EPOCH":"2026-05-14T18:03:44.190720","MEAN_MOTION":"1.86227418","ECCENTRICITY":"0.00044291","INCLINATION":"54.1758","RA_OF_ASC_NODE":"182.1382","ARG_OF_PERICENTER":"17.6934","MEAN_ANOMALY":"342.4159","EPHEMERIS_TYPE":"0","CLASSIFICATION_TYPE":"U","NORAD_CAT_ID":"43603","ELEMENT_SET_NO":"999","REV_AT_EPOCH":"5252","BSTAR":"0.00000000000000","MEAN_MOTION_DOT":"0.00000100","MEAN_MOTION_DDOT":"0.0000000000000","SEMIMAJOR_AXIS":"27906.546","PERIOD":"773.248","APOAPSIS":"21540.772","PERIAPSIS":"21516.051","OBJECT_TYPE":"PAYLOAD","RCS_SIZE":"LARGE","COUNTRY_CODE":"PRC","LAUNCH_DATE":"2018-08-24","SITE":"XSC","DECAY_DATE":null,"FILE":"5196510","GP_ID":"323405941","TLE_LINE0":"0 BEIDOU 3M12","TLE_LINE1":"1 43603U 18067B   26134.75259480  .00000100  00000-0  00000-0 0  9995","TLE_LINE2":"2 43603  54.1758 182.1382 0004429  17.6934 342.4159  1.86227418 52523"},{"CCSDS_OMM_VERS":"3.0","COMMENT":"GENERATED VIA SPACE-TRACK.ORG API","CREATION_DATE":"2026-05-18T14:57:15","ORIGINATOR":"18 SPCS","OBJECT_NAME":"BEIDOU 3M12","OBJECT_ID":"2018-067B","CENTER_NAME":"EARTH","REF_FRAME":"TEME","TIME_SYSTEM":"UTC","MEAN_ELEMENT_THEORY":"SGP4","EPOCH":"2026-05-18T12:16:16.529088","MEAN_MOTION":"1.86227344","ECCENTRICITY":"0.00044230","INCLINATION":"54.1756","RA_OF_ASC_NODE":"182.0106","ARG_OF_PERICENTER":"17.0296","MEAN_ANOMALY":"343.0701","EPHEMERIS_TYPE":"0","CLASSIFICATION_TYPE":"U","NORAD_CAT_ID":"43603","ELEMENT_SET_NO":"999","REV_AT_EPOCH":"5259","BSTAR":"0.00000000000000","MEAN_MOTION_DOT":"0.00000067","MEAN_MOTION_DDOT":"0.0000000000000","SEMIMAJOR_AXIS":"27906.554","PERIOD":"773.248","APOAPSIS":"21540.762","PERIAPSIS":"21516.076","OBJECT_TYPE":"PAYLOAD","RCS_SIZE":"LARGE","COUNTRY_CODE":"PRC","LAUNCH_DATE":"2018-08-24","SITE":"XSC","DECAY_DATE":null,"FILE":"5201679","GP_ID":"323715219","TLE_LINE0":"0 BEIDOU 3M12","TLE_LINE1":"1 43603U 18067B   26138.51130242  .00000067  00000-0  00000+0 0  9998","TLE_LINE2":"2 43603  54.1756 182.0106 0004423  17.0296 343.0701  1.86227344 52598"},{"CCSDS_OMM_VERS":"3.0","COMMENT":"GENERATED VIA SPACE-TRACK.ORG API","CREATION_DATE":"2026-05-19T02:42:52","ORIGINATOR":"18 SPCS","OBJECT_NAME":"BEIDOU 3M12","OBJECT_ID":"2018-067B","CENTER_NAME":"EARTH","REF_FRAME":"TEME","TIME_SYSTEM":"UTC","MEAN_ELEMENT_THEORY":"SGP4","EPOCH":"2026-05-18T12:16:16.529952","MEAN_MOTION":"1.86227344","ECCENTRICITY":"0.00044232","INCLINATION":"54.1756","RA_OF_ASC_NODE":"182.0106","ARG_OF_PERICENTER":"17.0296","MEAN_ANOMALY":"343.0701","EPHEMERIS_TYPE":"0","CLASSIFICATION_TYPE":"U","NORAD_CAT_ID":"43603","ELEMENT_SET_NO":"999","REV_AT_EPOCH":"5259","BSTAR":"0.00000000000000","MEAN_MOTION_DOT":"0.00000067","MEAN_MOTION_DDOT":"0.0000000000000","SEMIMAJOR_AXIS":"27906.554","PERIOD":"773.248","APOAPSIS":"21540.762","PERIAPSIS":"21516.075","OBJECT_TYPE":"PAYLOAD","RCS_SIZE":"LARGE","COUNTRY_CODE":"PRC","LAUNCH_DATE":"2018-08-24","SITE":"XSC","DECAY_DATE":null,"FILE":"5203002","GP_ID":"323761245","TLE_LINE0":"0 BEIDOU 3M12","TLE_LINE1":"1 43603U 18067B   26138.51130243  .00000067  00000-0  00000-0 0  9990","TLE_LINE2":"2 43603  54.1756 182.0106 0004423  17.0296 343.0701  1.86227344 52598"},{"CCSDS_OMM_VERS":"3.0","COMMENT":"GENERATED VIA SPACE-TRACK.ORG API","CREATION_DATE":"2026-05-19T10:22:28","ORIGINATOR":"18 SPCS","OBJECT_NAME":"BEIDOU 3M12","OBJECT_ID":"2018-067B","CENTER_NAME":"EARTH","REF_FRAME":"TEME","TIME_SYSTEM":"UTC","MEAN_ELEMENT_THEORY":"SGP4","EPOCH":"2026-05-19T01:09:29.499840","MEAN_MOTION":"1.86227309","ECCENTRICITY":"0.00043968","INCLINATION":"54.1757","RA_OF_ASC_NODE":"181.9925","ARG_OF_PERICENTER":"17.0226","MEAN_ANOMALY":"343.0733","EPHEMERIS_TYPE":"0","CLASSIFICATION_TYPE":"U","NORAD_CAT_ID":"43603","ELEMENT_SET_NO":"999","REV_AT_EPOCH":"5260","BSTAR":"0.00000000000000","MEAN_MOTION_DOT":"0.00000058","MEAN_MOTION_DDOT":"0.0000000000000","SEMIMAJOR_AXIS":"27906.557","PERIOD":"773.249","APOAPSIS":"21540.692","PERIAPSIS":"21516.152","OBJECT_TYPE":"PAYLOAD","RCS_SIZE":"LARGE","COUNTRY_CODE":"PRC","LAUNCH_DATE":"2018-08-24","SITE":"XSC","DECAY_DATE":null,"FILE":"5203799","GP_ID":"323813494","TLE_LINE0":"0 BEIDOU 3M12","TLE_LINE1":"1 43603U 18067B   26139.04825810  .00000058  00000-0  00000-0 0  9990","TLE_LINE2":"2 43603  54.1757 181.9925 0004397  17.0226 343.0733  1.86227309 52607"},{"CCSDS_OMM_VERS":"3.0","COMMENT":"GENERATED VIA SPACE-TRACK.ORG API","CREATION_DATE":"2026-05-19T06:46:35","ORIGINATOR":"18 SPCS","OBJECT_NAME":"BEIDOU 3M12","OBJECT_ID":"2018-067B","CENTER_NAME":"EARTH","REF_FRAME":"TEME","TIME_SYSTEM":"UTC","MEAN_ELEMENT_THEORY":"SGP4","EPOCH":"2026-05-19T01:09:29.499840","MEAN_MOTION":"1.86227309","ECCENTRICITY":"0.00043970","INCLINATION":"54.1757","RA_OF_ASC_NODE":"181.9925","ARG_OF_PERICENTER":"17.0226","MEAN_ANOMALY":"343.0733","EPHEMERIS_TYPE":"0","CLASSIFICATION_TYPE":"U","NORAD_CAT_ID":"43603","ELEMENT_SET_NO":"999","REV_AT_EPOCH":"5260","BSTAR":"0.00000000000000","MEAN_MOTION_DOT":"0.00000058","MEAN_MOTION_DDOT":"0.0000000000000","SEMIMAJOR_AXIS":"27906.557","PERIOD":"773.249","APOAPSIS":"21540.693","PERIAPSIS":"21516.152","OBJECT_TYPE":"PAYLOAD","RCS_SIZE":"LARGE","COUNTRY_CODE":"PRC","LAUNCH_DATE":"2018-08-24","SITE":"XSC","DECAY_DATE":null,"FILE":"5203234","GP_ID":"323783766","TLE_LINE0":"0 BEIDOU 3M12","TLE_LINE1":"1 43603U 18067B   26139.04825810  .00000058  00000-0  00000+0 0  9999","TLE_LINE2":"2 43603  54.1757 181.9925 0004397  17.0226 343.0733  1.86227309 52607"},{"CCSDS_OMM_VERS":"3.0","COMMENT":"GENERATED VIA SPACE-TRACK.ORG API","CREATION_DATE":"2026-05-20T11:06:57","ORIGINATOR":"18 SPCS","OBJECT_NAME":"BEIDOU 3M12","OBJECT_ID":"2018-067B","CENTER_NAME":"EARTH","REF_FRAME":"TEME","TIME_SYSTEM":"UTC","MEAN_ELEMENT_THEORY":"SGP4","EPOCH":"2026-05-20T02:55:55.302240","MEAN_MOTION":"1.86227273","ECCENTRICITY":"0.00043774","INCLINATION":"54.1757","RA_OF_ASC_NODE":"181.9561","ARG_OF_PERICENTER":"15.9012","MEAN_ANOMALY":"344.1863","EPHEMERIS_TYPE":"0","CLASSIFICATION_TYPE":"U","NORAD_CAT_ID":"43603","ELEMENT_SET_NO":"999","REV_AT_EPOCH":"5262","BSTAR":"0.00000000000000","MEAN_MOTION_DOT":"0.00000044","MEAN_MOTION_DDOT":"0.0000000000000","SEMIMAJOR_AXIS":"27906.561","PERIOD":"773.249","APOAPSIS":"21540.642","PERIAPSIS":"21516.210","OBJECT_TYPE":"PAYLOAD","RCS_SIZE":"LARGE","COUNTRY_CODE":"PRC","LAUNCH_DATE":"2018-08-24","SITE":"XSC","DECAY_DATE":null,"FILE":"5206425","GP_ID":"323941254","TLE_LINE0":"0 BEIDOU 3M12","TLE_LINE1":"1 43603U 18067B   26140.12216785  .00000044  00000-0  00000-0 0  9991","TLE_LINE2":"2 43603  54.1757 181.9561 0004377  15.9012 344.1863  1.86227273 52629"},{"CCSDS_OMM_VERS":"3.0","COMMENT":"GENERATED VIA SPACE-TRACK.ORG API","CREATION_DATE":"2026-05-20T14:36:24","ORIGINATOR":"18 SPCS","OBJECT_NAME":"BEIDOU 3M12","OBJECT_ID":"2018-067B","CENTER_NAME":"EARTH","REF_FRAME":"TEME","TIME_SYSTEM":"UTC","MEAN_ELEMENT_THEORY":"SGP4","EPOCH":"2026-05-20T02:55:55.302240","MEAN_MOTION":"1.86227273","ECCENTRICITY":"0.00043770","INCLINATION":"54.1757","RA_OF_ASC_NODE":"181.9561","ARG_OF_PERICENTER":"15.9012","MEAN_ANOMALY":"344.1863","EPHEMERIS_TYPE":"0","CLASSIFICATION_TYPE":"U","NORAD_CAT_ID":"43603","ELEMENT_SET_NO":"999","REV_AT_EPOCH":"5262","BSTAR":"0.00000000000000","MEAN_MOTION_DOT":"0.00000044","MEAN_MOTION_DDOT":"0.0000000000000","SEMIMAJOR_AXIS":"27906.561","PERIOD":"773.249","APOAPSIS":"21540.641","PERIAPSIS":"21516.211","OBJECT_TYPE":"PAYLOAD","RCS_SIZE":"LARGE","COUNTRY_CODE":"PRC","LAUNCH_DATE":"2018-08-24","SITE":"XSC","DECAY_DATE":null,"FILE":"5206656","GP_ID":"323965060","TLE_LINE0":"0 BEIDOU 3M12","TLE_LINE1":"1 43603U 18067B   26140.12216785  .00000044  00000-0  00000+0 0  9990","TLE_LINE2":"2 43603  54.1757 181.9561 0004377  15.9012 344.1863  1.86227273 52629"}]